BEIDOU 3 (C01)          
1 36287U 10001A   21219.54853447 -.00000281  00000-0  00000-0 0  9995
2 36287   1.9526  48.2518 0005759  87.1980 158.7607  1.00270746 42364
BEIDOU 5 (C06)          
1 36828U 10036A   21215.30852622 -.00000084  00000-0  00000+0 0  9998
2 36828  54.1793 179.1564 0114804 235.4859 123.3234  1.00245676 40389
BEIDOU 6 (C04)          
1 37210U 10057A   21219.55246008 -.00000112  00000-0  00000-0 0  9996
2 37210   0.9241  52.6185 0005745 126.7542 135.8554  1.00272475 39489
BEIDOU 7 (C07)          
1 37256U 10068A   21219.61561890 -.00000180  00000-0  00000-0 0  9999
2 37256  50.7726 293.3865 0092066 217.8109 143.8448  1.00296533 39002
BEIDOU 8 (C08)          
1 37384U 11013A   21219.11140071 -.00000161  00000-0  00000-0 0  9990
2 37384  59.8434  57.3892 0054233 206.8511 209.6454  1.00291894 37873
BEIDOU 9 (C09)          
1 37763U 11038A   21219.24669803 -.00000060  00000-0  00000-0 0  9999
2 37763  54.4697 181.5718 0084357 227.0181  88.9151  1.00255111 36841
BEIDOU 10 (C10)         
1 37948U 11073A   21219.47754779 -.00000124  00000-0  00000-0 0  9996
2 37948  50.8755 293.0167 0077740 215.7488  75.3538  1.00281980 35605
BEIDOU 11 (C05)         
1 38091U 12008A   21219.60401653  .00000055  00000-0  00000-0 0  9992
2 38091   1.6652  69.0041 0006913 339.0479 184.5315  1.00276603 34680
BEIDOU 12 (C11)         
1 38250U 12018A   21219.56240498 -.00000081  00000-0  00000-0 0  9993
2 38250  56.7511   3.9251 0020923 244.1473 116.2682  1.86234340 63248
BEIDOU 13 (C12)         
1 38251U 12018B   21218.92143308 -.00000084  00000-0  00000-0 0  9998
2 38251  56.6755   3.2930 0011804 243.5582  91.4888  1.86234143 63228
BEIDOU 15 (C14)         
1 38775U 12050B   21219.08303839 -.00000019  00000-0  00000-0 0  9998
2 38775  55.2307 122.2773 0014692 323.6468 317.1625  1.86232263 60602
BEIDOU 16 (C02)         
1 38953U 12059A   21219.60907620 -.00000177  00000-0  00000-0 0  9996
2 38953   1.2183  83.8812 0010920 297.5489 238.2314  1.00275022 32255
BEIDOU 17 (C31)         
1 40549U 15019A   21219.47857146 -.00000154  00000-0  00000-0 0  9996
2 40549  52.4129 316.4021 0039878 188.7248  76.4784  1.00255121 23285
BEIDOU 18 (C57)         
1 40748U 15037A   21219.09339664 -.00000085  00000-0  00000-0 0  9998
2 40748  55.9340   2.3423 0003460  51.8712 308.2944  1.86233419 41060
BEIDOU 19 (C58)         
1 40749U 15037B   21219.44109288 -.00000083  00000-0  00000-0 0  9993
2 40749  55.9388   2.3214 0002309 336.5242  32.6392  1.86232148 41066
BEIDOU 20 (C18)         
1 40938U 15053A   21219.34313295 -.00000087  00000-0  00000-0 0  9999
2 40938  51.9842 279.4812 0048507 194.1902  62.4651  1.00272042 21553
BEIDOU IGSO-6 (C13)     
1 41434U 16021A   21219.51021501 -.00000117  00000-0  00000-0 0  9996
2 41434  57.6295  56.1044 0038519 210.9101 327.2587  1.00259326 19688
BEIDOU-2 G7 (C03)       
1 41586U 16037A   21219.39907139 -.00000354  00000-0  00000-0 0  9990
2 41586   1.8045  68.2295 0008177  19.4441 122.5875  1.00267822 18997
BEIDOU-3 M1 (C19)       
1 43001U 17069A   21218.87983309 -.00000021  00000-0  00000-0 0  9996
2 43001  55.3847 122.2422 0010253 294.8146   5.7071  1.86231837 25536
BEIDOU-3 M2 (C20)       
1 43002U 17069B   21219.35318816 -.00000016  00000-0  00000-0 0  9990
2 43002  55.3850 122.2629 0009205 316.5711 344.7139  1.86231363 25530
BEIDOU-3 M3 (C27)       
1 43107U 18003A   21219.23749273 -.00000085  00000-0  00000-0 0  9993
2 43107  55.3782   3.3952 0005202  62.4096 327.2088  1.86232522 24305
BEIDOU-3 M4 (C28)       
1 43108U 18003B   21219.39490821 -.00000084  00000-0  00000-0 0  9992
2 43108  55.3719   3.3786 0002453 220.4492 319.8866  1.86232540 24303
BEIDOU-3 M5 (C21)       
1 43207U 18018A   21219.03620551 -.00000019  00000-0  00000+0 0  9991
2 43207  55.3442 122.3622 0006861 338.6709  21.3374  1.86231719 23683
BEIDOU-3 M6 (C22)       
1 43208U 18018B   21218.56595624 -.00000025  00000-0  00000-0 0  9999
2 43208  55.3435 122.3824 0008346 307.5535  52.4047  1.86231614 23677
BEIDOU-3 M7 (C29)       
1 43245U 18029A   21219.26045509 -.00000085  00000-0  00000-0 0  9998
2 43245  55.3072   1.1837 0001175 112.6775 202.5607  1.86232654 22839
BEIDOU-3 M8 (C30)       
1 43246U 18029B   21219.30499075 -.00000085  00000-0  10000-3 0  9999
2 43246  55.3046   1.2124 0003259   6.4618  24.8699  1.86233230 22839
BEIDOU IGSO-7 (C16)     
1 43539U 18057A   21219.51399755 -.00000127  00000-0  00000-0 0  9995
2 43539  55.0637 178.4959 0038898 223.5769 210.4248  1.00253234 11367
BEIDOU-3 M9 (C23)       
1 43581U 18062A   21219.49479618  .00000080  00000-0  00000-0 0  9999
2 43581  54.3847 242.8447 0006117 264.9871 103.7954  1.86231868 20584
BEIDOU-3 M10 (C24)      
1 43582U 18062B   21218.80297054  .00000083  00000-0  00000-0 0  9999
2 43582  54.3823 242.8592 0004671 325.9281  30.3977  1.86232172 20563
BEIDOU-3 M11 (C25)      
1 43602U 18067A   21219.44057464  .00000081  00000-0  00000-0 0  9995
2 43602  54.4597 241.4237 0006458 350.1794 115.7724  1.86231660 20075
BEIDOU-3 M12 (C26)      
1 43603U 18067B   21219.34169810  .00000081  00000-0  00000-0 0  9994
2 43603  54.4563 241.3947 0004069 330.3659 339.7447  1.86231590 20085
BEIDOU-3 M13 (C32)      
1 43622U 18072A   21219.28390362 -.00000017  00000-0  00000-0 0  9992
2 43622  55.3090 121.9201 0006747 293.3520   8.0519  1.86231910 19593
BEIDOU-3 M14 (C33)      
1 43623U 18072B   21219.14557720 -.00000018  00000-0  00000-0 0  9992
2 43623  55.3111 121.9159 0005544 319.5320 339.3674  1.86231932 19599
BEIDOU-3 M15 (C34)      
1 43647U 18078A   21219.12689523 -.00000086  00000-0  10000-3 0  9998
2 43647  55.2021   1.3743 0005597   6.4994 175.1014  1.86233058 19103
BEIDOU-3 M16 (C35)      
1 43648U 18078B   21219.26056487 -.00000086  00000-0  00000-0 0  9997
2 43648  55.1973   1.3763 0004094  27.2653 152.3238  1.86232326 19129
BEIDOU-3 G1 (C59)       
1 43683U 18085A   21218.97426390 -.00000280  00000-0  00000-0 0  9991
2 43683   0.9860 220.8243 0003748   6.0386 219.4569  1.00266037 10254
BEIDOU-3 M17 (C36)      
1 43706U 18093A   21218.07222836  .00000086  00000-0  00000-0 0  9999
2 43706  54.4645 242.7562 0011740 267.8209  92.1152  1.86232055 18466
BEIDOU-3 M18 (C37)      
1 43707U 18093B   21219.28728529  .00000081  00000-0  00000-0 0  9999
2 43707  54.4639 242.7063 0009718 287.3945 258.0803  1.86232140 18474
BEIDOU-3 IGSO-1 (C38)   
1 44204U 19023A   21219.55420122 -.00000184  00000-0  00000-0 0  9999
2 44204  56.0894  56.3586 0019487 188.0264  25.4044  1.00280164  8569
BEIDOU-2 G8             
1 44231U 19027A   21217.70396781 -.00000245  00000-0  00000-0 0  9999
2 44231   0.2585  15.1647 0006624 179.7341 157.4369  1.00275051  8251
BEIDOU-3 IGSO-2 (C39)   
1 44337U 19035A   21215.30782832 -.00000095  00000-0  00000+0 0  9997
2 44337  55.0964 174.5721 0020264 193.0950 162.7140  1.00268053  7856
BEIDOU-3 M23 (C45)      
1 44542U 19061A   21219.47917639  .00000081  00000-0  10000-3 0  9990
2 44542  54.6879 242.7891 0008609 315.2893 311.6960  1.86231346 12730
BEIDOU-3 M24 (C46)      
1 44543U 19061B   21218.13799453  .00000086  00000-0  10000-3 0  9990
2 44543  54.6868 242.8044 0006473 298.8757  59.8317  1.86231710 12701
BEIDOU-3 IGSO-3         
1 44709U 19073A   21219.34313295 -.00000144  00000-0  00000-0 0  9999
2 44709  57.7643 299.6373 0021437 202.0892  43.7923  1.00262708  6658
BEIDOU-3 M21            
1 44793U 19078A   21218.65820898 -.00000081  00000-0  34430+2 0  9997
2 44793  55.0494   1.4498 0005811  15.7528 165.9864  1.86232554 11585
BEIDOU-3 M22            
1 44794U 19078B   21219.32773654 -.00000086  00000-0  00000-0 0  9990
2 44794  55.0237   1.4245 0003870  19.7031 162.0023  1.86232844 11595
BEIDOU-3 M19            
1 44864U 19090A   21219.52397207 -.00000014  00000-0  00000-0 0  9991
2 44864  55.2445 122.1400 0016238 270.2708 237.5970  1.86231958 11186
BEIDOU-3 M20            
1 44865U 19090B   21219.08005729 -.00000019  00000-0  00000-0 0  9993
2 44865  55.2465 122.1849 0015066 285.0918  15.0640  1.86231913 11141
BEIDOU-3 G2             
1 45344U 20017A   21219.60829109 -.00000137  00000-0  00000-0 0  9992
2 45344   2.3647 338.2559 0004226 146.5051 130.6000  1.00271422  5470
BEIDOU-3 G3             
1 45807U 20040A   21219.61439759 -.00000352  00000-0  00000-0 0  9990
2 45807   2.1661 298.7363 0007013 340.9740   8.3709  1.00272991  4280
